[{"OBJECT_NAME":"STARLINK-5893","OBJECT_ID":"2023-037AQ","EPOCH":"2026-03-09T21:53:15.441792","MEAN_MOTION":14.98316612,"ECCENTRICITY":0.00025518,"INCLINATION":69.9981,"RA_OF_ASC_NODE":264.0104,"ARG_OF_PERICENTER":278.3989,"MEAN_ANOMALY":81.688,"EPHEMERIS_TYPE":0,"CLASSIFICATION_TYPE":"U","NORAD_CAT_ID":55952,"ELEMENT_SET_NO":999,"REV_AT_EPOCH":16450,"BSTAR":4.7600036e-5,"MEAN_MOTION_DOT":4.75e-6,"MEAN_MOTION_DDOT":0},{"OBJECT_NAME":"CZ-2D R\/B","OBJECT_ID":"2018-048C","EPOCH":"2026-03-09T15:04:20.679168","MEAN_MOTION":14.94740995,"ECCENTRICITY":0.001273,"INCLINATION":97.5865,"RA_OF_ASC_NODE":101.6245,"ARG_OF_PERICENTER":129.2773,"MEAN_ANOMALY":230.9579,"EPHEMERIS_TYPE":0,"CLASSIFICATION_TYPE":"U","NORAD_CAT_ID":43486,"ELEMENT_SET_NO":999,"REV_AT_EPOCH":42028,"BSTAR":0.00054527,"MEAN_MOTION_DOT":5.879e-5,"MEAN_MOTION_DDOT":0}]
